OBJECT_NAME,OBJECT_ID,EPOCH,MEAN_MOTION,ECCENTRICITY,INCLINATION,RA_OF_ASC_NODE,ARG_OF_PERICENTER,MEAN_ANOMALY,EPHEMERIS_TYPE,CLASSIFICATION_TYPE,NORAD_CAT_ID,ELEMENT_SET_NO,REV_AT_EPOCH,BSTAR,MEAN_MOTION_DOT,MEAN_MOTION_DDOT
SCD 1,1993-009B,2026-07-23T18:07:08.073120,14.46131271,.0041896,24.9709,341.7909,164.7369,334.4973,0,U,22490,999,76641,.52997E-4,.381E-5,0
TECHSAT 1B (GO-32),1998-043D,2026-07-23T10:48:15.492384,14.24434535,.0002334,99.0092,198.1273,101.8892,258.2548,0,U,25397,999,45649,.3952E-4,.45E-6,0
SCD 2,1998-060A,2026-07-23T08:01:40.139904,14.45536636,.0016896,24.9935,209.2393,144.3748,238.6600,0,U,25504,999,46556,.41078E-4,.329E-5,0
DLR-TUBSAT,1999-029B,2026-07-23T19:19:27.488064,14.52434653,.0013179,98.6718,201.5180,236.3426,123.6512,0,U,25757,999,43856,.29061E-4,.7E-6,0
TERRA,1999-068A,2026-07-23T20:37:35.673024,14.61128749,.0003661,97.9435,252.9477,105.7480,308.7370,0,U,25994,999,41496,.76192E-4,.33E-5,0
MAROC-TUBSAT,2001-056D,2026-07-23T07:17:44.152800,13.70263768,.0020465,99.8105,21.8479,52.0406,71.8075,0,U,27004,999,23113,.3248E-4,-.18E-6,0
AQUA,2002-022A,2026-07-23T20:45:13.915296,14.62137943,.0001374,98.4303,174.8863,102.1497,288.0645,0,U,27424,999,28863,.13619E-3,.635E-5,0
SHIYAN-1 (SY-1),2004-012A,2026-07-23T04:28:00.464736,15.34601655,.00044588,97.8674,284.6144,238.6247,121.4559,0,U,28220,999,21661,.4055773E-3,.13523E-3,0
AURA,2004-026A,2026-07-23T19:45:11.737728,14.61377134,.0001442,98.3435,161.5851,93.7182,266.4183,0,U,28376,999,17156,.13646E-3,.627E-5,0
IRS-P5 (CARTOSAT-1),2005-017A,2026-07-23T07:34:46.663104,14.91132260,.0000929,97.5308,225.7421,58.5890,301.5420,0,U,28649,999,14920,.10879E-3,.1026E-4,0
SINAH 1,2005-043D,2026-07-23T19:41:24.590400,14.64180013,.001499,98.2903,339.3671,157.0676,203.1199,0,U,28893,999,10588,.68494E-4,.311E-5,0
RESURS-DK 1,2006-021A,2026-07-23T07:47:10.675104,15.13340824,.0007572,69.9299,245.9974,262.5212,97.5094,0,U,29228,999,10804,.95009E-4,.1589E-4,0
ARIRANG-2 (KOMPSAT-2),2006-031A,2026-07-23T20:25:10.053120,14.64680356,.0013528,97.8326,27.5260,322.5393,145.9398,0,U,29268,999,6684,.11575E-3,.571E-5,0
LAPAN-TUBSAT,2007-001A,2026-07-23T19:38:35.532384,14.85982055,.0013564,98.1364,204.8716,69.0082,291.2582,0,U,29709,999,5659,.70267E-4,.557E-5,0
HAIYANG-1B,2007-010A,2026-07-23T08:43:13.986048,14.31034891,.0014826,98.3523,184.8102,93.6361,266.6518,0,U,31113,999,581,.46813E-4,.82E-6,0
COSMO-SKYMED 1,2007-023A,2026-07-23T19:50:17.683584,14.97258074,.0001924,97.8864,36.9939,92.2122,267.9320,0,U,31598,999,3527,.27945E-3,.3177E-4,0
TERRASAR-X,2007-026A,2026-07-22T11:55:52.401792,15.19149840,.00017968,97.4457,210.7016,80.1769,279.9668,0,U,31698,999,5858,.15522946E-4,.259E-5,0
WORLDVIEW-1 (WV-1),2007-041A,2026-07-23T18:53:54.002112,15.24631277,.0002355,97.3901,324.0214,174.6972,185.4291,0,U,32060,999,4845,.2264E-3,.5516E-4,0
YAOGAN-3,2007-055A,2026-07-23T20:10:20.917632,14.90907173,.0001538,97.8150,234.3563,86.7192,273.4202,0,U,32289,999,1133,.26028E-3,.2511E-4,0
COSMO-SKYMED 2,2007-059A,2026-07-23T19:39:45.473184,14.82155877,.0001481,97.8899,27.8881,93.9739,266.1643,0,U,32376,999,743,.55129E-4,.387E-5,0
RADARSAT-2,2007-061A,2026-07-23T20:13:10.766208,14.29980909,.0001322,98.5795,211.2521,87.2851,272.8483,0,U,32382,999,97119,.34921E-4,.46E-6,0
CARTOSAT-2A,2008-021A,2026-07-23T20:15:22.599648,14.79284670,.0011722,97.7617,252.2977,0.4617,359.6604,0,U,32783,999,98422,.10911E-3,.762E-5,0
HUANJING 1A (HJ-1A),2008-041A,2026-07-23T21:55:07.523328,14.84065034,.0019653,97.6709,189.3370,22.7242,337.4838,0,U,33320,999,96385,.18246E-3,.1474E-4,0
HUANJING 1B (HJ-1B),2008-041B,2026-07-23T21:34:55.466112,14.83377006,.0037855,97.6546,192.3834,63.9874,296.5231,0,U,33321,999,96385,.86148E-4,.663E-5,0
GEOEYE 1,2008-042A,2026-07-23T20:05:56.073984,14.64655008,.00034,98.1321,278.3317,313.9819,46.1104,0,U,33331,999,95551,.81988E-4,.388E-5,0
THEOS,2008-049A,2026-07-23T21:18:12.350880,14.20136202,.0001156,98.5553,260.9755,92.6333,267.4976,0,U,33396,999,92317,-.13678E-3,-.334E-5,0
COSMO-SKYMED 3,2008-054A,2026-07-23T20:38:35.015136,15.07158641,.0016844,97.8255,64.0369,137.0955,223.1590,0,U,33412,999,96246,.21215E-3,.3134E-4,0
YAOGAN-4,2008-061A,2026-07-23T12:41:24.052704,14.83263303,.0013219,97.9302,137.7723,317.1777,42.8406,0,U,33446,999,95105,.11327E-3,.873E-5,0
GOSAT (IBUKI),2009-002A,2026-07-23T13:08:35.549088,14.67541250,.0001095,98.0915,315.1783,93.3128,266.8202,0,U,33492,999,93679,.98687E-4,.512E-5,0
DEIMOS-1,2009-041A,2026-07-23T21:07:41.123712,14.75271934,.0002798,97.7447,0.5263,80.1939,279.9587,0,U,35681,999,91229,.13771E-3,.884E-5,0
DUBAISAT-1,2009-041B,2026-07-23T07:27:16.042176,14.75176292,.0009366,98.0093,337.1822,320.7560,39.2969,0,U,35682,999,91042,.11632E-3,.735E-5,0
