SCD 1                   
1 22490U 93009B   26204.75495455  .00000381  00000+0  52997-4 0  9993
2 22490  24.9709 341.7909 0041896 164.7369 334.4973 14.46131271766414
TECHSAT 1B (GO-32)      
1 25397U 98043D   26204.45017931  .00000045  00000+0  39520-4 0  9995
2 25397  99.0092 198.1273 0002334 101.8892 258.2548 14.24434535456496
SCD 2                   
1 25504U 98060A   26204.33449236  .00000329  00000+0  41078-4 0  9994
2 25504  24.9935 209.2393 0016896 144.3748 238.6600 14.45536636465563
DLR-TUBSAT              
1 25757U 99029B   26204.80517926  .00000070  00000+0  29061-4 0  9995
2 25757  98.6718 201.5180 0013179 236.3426 123.6512 14.52434653438564
TERRA                   
1 25994U 99068A   26204.85944066  .00000330  00000+0  76192-4 0  9991
2 25994  97.9435 252.9477 0003661 105.7480 308.7370 14.61128749414960
MAROC-TUBSAT            
1 27004U 01056D   26204.30398325 -.00000018  00000+0  32480-4 0  9992
2 27004  99.8105  21.8479 0020465  52.0406  71.8075 13.70263768231133
AQUA                    
1 27424U 02022A   26204.86474439  .00000635  00000+0  13619-3 0  9990
2 27424  98.4303 174.8863 0001374 102.1497 288.0645 14.62137943288634
SHIYAN-1 (SY-1)         
1 28220U 04012A   26204.18611649  .00013523  00000+0  40558-3 0  9999
2 28220  97.8674 284.6144 0004458 238.6247 121.4559 15.34601655216618
AURA                    
1 28376U 04026A   26204.82305252  .00000627  00000+0  13646-3 0  9996
2 28376  98.3435 161.5851 0001442  93.7182 266.4183 14.61377134171565
IRS-P5 (CARTOSAT-1)     
1 28649U 05017A   26204.31581786  .00001026  00000+0  10879-3 0  9991
2 28649  97.5308 225.7421 0000929  58.5890 301.5420 14.91132260149201
SINAH 1                 
1 28893U 05043D   26204.82042350  .00000311  00000+0  68494-4 0  9999
2 28893  98.2903 339.3671 0014990 157.0676 203.1199 14.64180013105885
RESURS-DK 1             
1 29228U 06021A   26204.32442911  .00001589  00000+0  95009-4 0  9991
2 29228  69.9299 245.9974 0007572 262.5212  97.5094 15.13340824108048
ARIRANG-2 (KOMPSAT-2)   
1 29268U 06031A   26204.85081080  .00000571  00000+0  11575-3 0  9995
2 29268  97.8326  27.5260 0013528 322.5393 145.9398 14.64680356 66848
LAPAN-TUBSAT            
1 29709U 07001A   26204.81846681  .00000557  00000+0  70267-4 0  9993
2 29709  98.1364 204.8716 0013564  69.0082 291.2582 14.85982055 56593
HAIYANG-1B              
1 31113U 07010A   26204.36335632  .00000082  00000+0  46813-4 0  9997
2 31113  98.3523 184.8102 0014826  93.6361 266.6518 14.31034891  5816
COSMO-SKYMED 1          
1 31598U 07023A   26204.82659356  .00003177  00000+0  27945-3 0  9993
2 31598  97.8864  36.9939 0001924  92.2122 267.9320 14.97258074 35276
TERRASAR-X              
1 31698U 07026A   26203.49713428  .00000259  00000+0  15523-4 0  9998
2 31698  97.4457 210.7016 0001796  80.1769 279.9668 15.19149840 58581
WORLDVIEW-1 (WV-1)      
1 32060U 07041A   26204.78743058  .00005516  00000+0  22640-3 0  9992
2 32060  97.3901 324.0214 0002355 174.6972 185.4291 15.24631277 48458
YAOGAN-3                
1 32289U 07055A   26204.84051988  .00002511  00000+0  26028-3 0  9997
2 32289  97.8150 234.3563 0001538  86.7192 273.4202 14.90907173 11331
COSMO-SKYMED 2          
1 32376U 07059A   26204.81927631  .00000387  00000+0  55129-4 0  9996
2 32376  97.8899  27.8881 0001481  93.9739 266.1643 14.82155877  7431
RADARSAT-2              
1 32382U 07061A   26204.84248572  .00000046  00000+0  34921-4 0  9998
2 32382  98.5795 211.2521 0001322  87.2851 272.8483 14.29980909971198
CARTOSAT-2A             
1 32783U 08021A   26204.84401157  .00000762  00000+0  10911-3 0  9997
2 32783  97.7617 252.2977 0011722   0.4617 359.6604 14.79284670984223
HUANJING 1A (HJ-1A)     
1 33320U 08041A   26204.91328152  .00001474  00000+0  18246-3 0  9998
2 33320  97.6709 189.3370 0019653  22.7242 337.4838 14.84065034963857
HUANJING 1B (HJ-1B)     
1 33321U 08041B   26204.89925308  .00000663  00000+0  86148-4 0  9998
2 33321  97.6546 192.3834 0037855  63.9874 296.5231 14.83377006963854
GEOEYE 1                
1 33331U 08042A   26204.83745456  .00000388  00000+0  81988-4 0  9999
2 33331  98.1321 278.3317 0003400 313.9819  46.1104 14.64655008955511
THEOS                   
1 33396U 08049A   26204.88764295 -.00000334  00000+0 -13678-3 0  9997
2 33396  98.5553 260.9755 0001156  92.6333 267.4976 14.20136202923178
COSMO-SKYMED 3          
1 33412U 08054A   26204.86012749  .00003134  00000+0  21215-3 0  9995
2 33412  97.8255  64.0369 0016844 137.0955 223.1590 15.07158641962469
YAOGAN-4                
1 33446U 08061A   26204.52875061  .00000873  00000+0  11327-3 0  9997
2 33446  97.9302 137.7723 0013219 317.1777  42.8406 14.83263303951058
GOSAT (IBUKI)           
1 33492U 09002A   26204.54763367  .00000512  00000+0  98687-4 0  9996
2 33492  98.0915 315.1783 0001095  93.3128 266.8202 14.67541250936799
DEIMOS-1                
1 35681U 09041A   26204.88033708  .00000884  00000+0  13771-3 0  9999
2 35681  97.7447   0.5263 0002798  80.1939 279.9587 14.75271934912298
DUBAISAT-1              
1 35682U 09041B   26204.31060234  .00000735  00000+0  11632-3 0  9991
2 35682  98.0093 337.1822 0009366 320.7560  39.2969 14.75176292910426
